{"type": "FeatureCollection", "features": [ {"type": "Feature", "properties": {"norad_id": 37216, "name": "COSMO-SKYMED 4", "group": "resource", "lat": -49.61677542511416, "lon": -173.82810526997613, "alt_km": 630.095349629255, "timestamp": "2025-12-21T14:40:47.567515+00:00", "meta": {"OBJECT_NAME": "COSMO-SKYMED 4", "OBJECT_ID": "2010-060A", "EPOCH": "2025-12-21T05:11:05.197632", "MEAN_MOTION": 14.82155476, "ECCENTRICITY": 0.00014312, "INCLINATION": 97.8799, "RA_OF_ASC_NODE": 176.4112, "ARG_OF_PERICENTER": 82.6751, "MEAN_ANOMALY": 277.4624, "EPHEMERIS_TYPE": 0, "CLASSIFICATION_TYPE": "U", "NORAD_CAT_ID": 37216, "ELEMENT_SET_NO": 999, "REV_AT_EPOCH": 81820, "BSTAR": 9.4203943e-05, "MEAN_MOTION_DOT": 6.98e-06, "MEAN_MOTION_DDOT": 0}, "tle": {"line1": "1 37216U 10060A   25355.21603238  .00000698  00000+0  94204-4 0  9996", "line2": "2 37216  97.8799 176.4112 0001431  82.6751 277.4624 14.82155476818204"}}, "geometry": {"type": "Point", "coordinates": [-173.82810526997613, -49.61677542511416]}}, {"type": "Feature", "properties": {"norad_id": 37387, "name": "RESOURCESAT-2", "group": "resource", "lat": 35.26755404927599, "lon": -114.5973908098032, "alt_km": 820.0412635220873, "timestamp": "2025-12-21T14:40:47.567525+00:00", "meta": {"OBJECT_NAME": "RESOURCESAT-2", "OBJECT_ID": "2011-015A", "EPOCH": "2025-12-21T05:33:30.367872", "MEAN_MOTION": 14.21600387, "ECCENTRICITY": 0.00060289, "INCLINATION": 98.7865, "RA_OF_ASC_NODE": 58.7449, "ARG_OF_PERICENTER": 19.7356, "MEAN_ANOMALY": 340.4053, "EPHEMERIS_TYPE": 0, "CLASSIFICATION_TYPE": "U", "NORAD_CAT_ID": 37387, "ELEMENT_SET_NO": 999, "REV_AT_EPOCH": 76089, "BSTAR": 6.7242875e-05, "MEAN_MOTION_DOT": 1.03e-06, "MEAN_MOTION_DDOT": 0}, "tle": {"line1": "1 37387U 11015A   25355.23160148  .00000103  00000+0  67243-4 0  9990", "line2": "2 37387  98.7865  58.7449 0006028  19.7356 340.4053 14.21600387760898"}}, "geometry": {"type": "Point", "coordinates": [-114.5973908098032, 35.26755404927599]}}, {"type": "Feature", "properties": {"norad_id": 37781, "name": "HAIYANG-2A", "group": "resource", "lat": -80.50681116591801, "lon": 96.71655580278791, "alt_km": 976.4738935423547, "timestamp": "2025-12-21T14:40:47.567535+00:00", "meta": {"OBJECT_NAME": "HAIYANG-2A", "OBJECT_ID": "2011-043A", "EPOCH": "2025-12-21T06:24:59.250816", "MEAN_MOTION": 13.78836469, "ECCENTRICITY": 0.00016388, "INCLINATION": 99.3371, "RA_OF_ASC_NODE": 356.0705, "ARG_OF_PERICENTER": 72.01, "MEAN_ANOMALY": 288.123, "EPHEMERIS_TYPE": 0, "CLASSIFICATION_TYPE": "U", "NORAD_CAT_ID": 37781, "ELEMENT_SET_NO": 999, "REV_AT_EPOCH": 72216, "BSTAR": 0.00014580691, "MEAN_MOTION_DOT": 1.04e-06, "MEAN_MOTION_DDOT": 0}, "tle": {"line1": "1 37781U 11043A   25355.26735244  .00000104  00000+0  14581-3 0  9994", "line2": "2 37781  99.3371 356.0705 0001638  72.0100 288.1230 13.78836469722161"}}, "geometry": {"type": "Point", "coordinates": [96.71655580278791, -80.50681116591801]}}, {"type": "Feature", "properties": {"norad_id": 37791, "name": "RASAT", "group": "resource", "lat": -14.766978362770645, "lon": 86.88011590472536, "alt_km": 663.3005298812077, "timestamp": "2025-12-21T14:40:47.567545+00:00", "meta": {"OBJECT_NAME": "RASAT", "OBJECT_ID": "2011-044D", "EPOCH": "2025-12-21T06:59:44.150208", "MEAN_MOTION": 14.67919364, "ECCENTRICITY": 0.00215018, "INCLINATION": 98.0652, "RA_OF_ASC_NODE": 84.4227, "ARG_OF_PERICENTER": 39.3012, "MEAN_ANOMALY": 55.1257, "EPHEMERIS_TYPE": 0, "CLASSIFICATION_TYPE": "U", "NORAD_CAT_ID": 37791, "ELEMENT_SET_NO": 999, "REV_AT_EPOCH": 76708, "BSTAR": 3.5498074e-05, "MEAN_MOTION_DOT": 1.55e-06, "MEAN_MOTION_DDOT": 0}, "tle": {"line1": "1 37791U 11044D   25355.29148322  .00000155  00000+0  35498-4 0  9991", "line2": "2 37791  98.0652  84.4227 0021501  39.3012  55.1257 14.67919364767086"}}, "geometry": {"type": "Point", "coordinates": [86.88011590472536, -14.766978362770645]}}, {"type": "Feature", "properties": {"norad_id": 37841, "name": "SRMSAT", "group": "resource", "lat": -19.174458352350257, "lon": -52.52051019682521, "alt_km": 861.9355971130999, "timestamp": "2025-12-21T14:40:47.567555+00:00", "meta": {"OBJECT_NAME": "SRMSAT", "OBJECT_ID": "2011-058D", "EPOCH": "2025-12-21T05:09:06.003648", "MEAN_MOTION": 14.11514057, "ECCENTRICITY": 0.00119639, "INCLINATION": 19.9726, "RA_OF_ASC_NODE": 56.6591, "ARG_OF_PERICENTER": 46.4433, "MEAN_ANOMALY": 346.0318, "EPHEMERIS_TYPE": 0, "CLASSIFICATION_TYPE": "U", "NORAD_CAT_ID": 37841, "ELEMENT_SET_NO": 999, "REV_AT_EPOCH": 73264, "BSTAR": 6.4007523e-05, "MEAN_MOTION_DOT": 3.83e-06, "MEAN_MOTION_DDOT": 0}, "tle": {"line1": "1 37841U 11058D   25355.21465282  .00000383  00000+0  64008-4 0  9993", "line2": "2 37841  19.9726  56.6591 0011963  46.4433 346.0318 14.11514057732641"}}, "geometry": {"type": "Point", "coordinates": [-52.52051019682521, -19.174458352350257]}}, {"type": "Feature", "properties": {"norad_id": 38012, "name": "PLEIADES 1A", "group": "resource", "lat": -22.28209464356008, "lon": -115.13619645139528, "alt_km": 703.6620104099729, "timestamp": "2025-12-21T14:40:47.567565+00:00", "meta": {"OBJECT_NAME": "PLEIADES 1A", "OBJECT_ID": "2011-076F", "EPOCH": "2025-12-21T07:30:44.159040", "MEAN_MOTION": 14.58568138, "ECCENTRICITY": 0.00011501, "INCLINATION": 98.1821, "RA_OF_ASC_NODE": 67.9497, "ARG_OF_PERICENTER": 76.5836, "MEAN_ANOMALY": 358.5763, "EPHEMERIS_TYPE": 0, "CLASSIFICATION_TYPE": "U", "NORAD_CAT_ID": 38012, "ELEMENT_SET_NO": 999, "REV_AT_EPOCH": 74606, "BSTAR": 4.5139661e-05, "MEAN_MOTION_DOT": 1.64e-06, "MEAN_MOTION_DDOT": 0}, "tle": {"line1": "1 38012U 11076F   25355.31301110  .00000164  00000+0  45140-4 0  9997", "line2": "2 38012  98.1821  67.9497 0001150  76.5836 358.5763 14.58568138746068"}}, "geometry": {"type": "Point", "coordinates": [-115.13619645139528, -22.28209464356008]}}, {"type": "Feature", "properties": {"norad_id": 38038, "name": "ZIYUAN 1-02C (ZY 1-02C)", "group": "resource", "lat": 4.7761471982019374, "lon": -117.82771265423324, "alt_km": 764.6699960132091, "timestamp": "2025-12-21T14:40:47.567575+00:00", "meta": {"OBJECT_NAME": "ZIYUAN 1-02C (ZY 1-02C)", "OBJECT_ID": "2011-079A", "EPOCH": "2025-12-21T07:32:49.058880", "MEAN_MOTION": 14.38020984, "ECCENTRICITY": 0.00074837, "INCLINATION": 98.4329, "RA_OF_ASC_NODE": 61.1704, "ARG_OF_PERICENTER": 115.9574, "MEAN_ANOMALY": 321.318, "EPHEMERIS_TYPE": 0, "CLASSIFICATION_TYPE": "U", "NORAD_CAT_ID": 38038, "ELEMENT_SET_NO": 999, "REV_AT_EPOCH": 73364, "BSTAR": 0.00014856727, "MEAN_MOTION_DOT": 4.06e-06, "MEAN_MOTION_DDOT": 0}, "tle": {"line1": "1 38038U 11079A   25355.31445670  .00000406  00000+0  14857-3 0  9997", "line2": "2 38038  98.4329  61.1704 0007483 115.9574 321.3180 14.38020984733642"}}, "geometry": {"type": "Point", "coordinates": [-117.82771265423324, 4.7761471982019374]}}, {"type": "Feature", "properties": {"norad_id": 38338, "name": "ARIRANG-3 (KOMPSAT-3)", "group": "resource", "lat": -20.330319143102205, "lon": 127.15517498388941, "alt_km": 693.8402508420859, "timestamp": "2025-12-21T14:40:47.567586+00:00", "meta": {"OBJECT_NAME": "ARIRANG-3 (KOMPSAT-3)", "OBJECT_ID": "2012-025B", "EPOCH": "2025-12-21T07:11:37.638816", "MEAN_MOTION": 14.61723077, "ECCENTRICITY": 0.00048556, "INCLINATION": 98.3335, "RA_OF_ASC_NODE": 309.9541, "ARG_OF_PERICENTER": 308.6967, "MEAN_ANOMALY": 51.3799, "EPHEMERIS_TYPE": 0, "CLASSIFICATION_TYPE": "U", "NORAD_CAT_ID": 38338, "ELEMENT_SET_NO": 999, "REV_AT_EPOCH": 72535, "BSTAR": 9.797126e-05, "MEAN_MOTION_DOT": 4.4e-06, "MEAN_MOTION_DDOT": 0}, "tle": {"line1": "1 38338U 12025B   25355.29974119  .00000440  00000+0  97971-4 0  9991", "line2": "2 38338  98.3335 309.9541 0004855 308.6967  51.3799 14.61723077725354"}}, "geometry": {"type": "Point", "coordinates": [127.15517498388941, -20.330319143102205]}}, {"type": "Feature", "properties": {"norad_id": 38709, "name": "EXACTVIEW-1 (ADS-1B)", "group": "resource", "lat": 72.7201639004341, "lon": -45.322217341639224, "alt_km": 807.1574316467104, "timestamp": "2025-12-21T14:40:47.567633+00:00", "meta": {"OBJECT_NAME": "EXACTVIEW-1 (ADS-1B)", "OBJECT_ID": "2012-039C", "EPOCH": "2025-12-21T05:45:48.949632", "MEAN_MOTION": 14.24911126, "ECCENTRICITY": 0.00102647, "INCLINATION": 98.9638, "RA_OF_ASC_NODE": 103.8086, "ARG_OF_PERICENTER": 328.9427, "MEAN_ANOMALY": 31.1144, "EPHEMERIS_TYPE": 0, "CLASSIFICATION_TYPE": "U", "NORAD_CAT_ID": 38709, "ELEMENT_SET_NO": 999, "REV_AT_EPOCH": 69736, "BSTAR": 6.8926878e-05, "MEAN_MOTION_DOT": 1.15e-06, "MEAN_MOTION_DDOT": 0}, "tle": {"line1": "1 38709U 12039C   25355.24014988  .00000115  00000+0  68927-4 0  9990", "line2": "2 38709  98.9638 103.8086 0010264 328.9427  31.1144 14.24911126697362"}}, "geometry": {"type": "Point", "coordinates": [-45.322217341639224, 72.7201639004341]}}, {"type": "Feature", "properties": {"norad_id": 38755, "name": "SPOT 6", "group": "resource", "lat": 53.05536105373503, "lon": -108.77228308209952, "alt_km": 692.2890413037076, "timestamp": "2025-12-21T14:40:47.567648+00:00", "meta": {"OBJECT_NAME": "SPOT 6", "OBJECT_ID": "2012-047A", "EPOCH": "2025-12-21T07:31:04.908000", "MEAN_MOTION": 14.58539468, "ECCENTRICITY": 0.00013232, "INCLINATION": 98.1568, "RA_OF_ASC_NODE": 59.9402, "ARG_OF_PERICENTER": 78.8768, "MEAN_ANOMALY": 281.258, "EPHEMERIS_TYPE": 0, "CLASSIFICATION_TYPE": "U", "NORAD_CAT_ID": 38755, "ELEMENT_SET_NO": 999, "REV_AT_EPOCH": 70712, "BSTAR": 8.4428794e-05, "MEAN_MOTION_DOT": 3.47e-06, "MEAN_MOTION_DDOT": 0}, "tle": {"line1": "1 38755U 12047A   25355.31325125  .00000347  00000+0  84429-4 0  9998", "line2": "2 38755  98.1568  59.9402 0001323  78.8768 281.2580 14.58539468707125"}}, "geometry": {"type": "Point", "coordinates": [-108.77228308209952, 53.05536105373503]}}]}